[Satellite]
VERSION=1.1
NAME=RADUGA 13 [-]
NICKNAME=RADUGA 13 [-]
TLE1=1 14307U 83088A   15052.73570969 -.00000065  00000-0  00000+0 0  9992
TLE2=2 14307  15.4890 350.9618 0013551 323.9492 148.5454  0.98173007 78352
